[{"OBJECT_NAME":"STARLINK-4536","OBJECT_ID":"2022-111L","EPOCH":"2026-03-09T22:19:48.489312","MEAN_MOTION":15.0883542,"ECCENTRICITY":0.00019402,"INCLINATION":53.2167,"RA_OF_ASC_NODE":272.9599,"ARG_OF_PERICENTER":102.1677,"MEAN_ANOMALY":257.9533,"EPHEMERIS_TYPE":0,"CLASSIFICATION_TYPE":"U","NORAD_CAT_ID":53783,"ELEMENT_SET_NO":999,"REV_AT_EPOCH":19373,"BSTAR":3.9163344e-5,"MEAN_MOTION_DOT":3.35e-6,"MEAN_MOTION_DDOT":0},{"OBJECT_NAME":"COSMOS 397 DEB","OBJECT_ID":"1971-015D","EPOCH":"2026-03-09T13:45:21.862944","MEAN_MOTION":13.72086922,"ECCENTRICITY":0.0619447,"INCLINATION":65.8363,"RA_OF_ASC_NODE":222.312,"ARG_OF_PERICENTER":314.4555,"MEAN_ANOMALY":40.7385,"EPHEMERIS_TYPE":0,"CLASSIFICATION_TYPE":"U","NORAD_CAT_ID":5010,"ELEMENT_SET_NO":999,"REV_AT_EPOCH":63519,"BSTAR":0.00085725,"MEAN_MOTION_DOT":3.091e-5,"MEAN_MOTION_DDOT":0}]
